[{"OBJECT_NAME":"HAWK-C","OBJECT_ID":"2018-099AT","EPOCH":"2026-03-09T16:08:34.251360","MEAN_MOTION":15.26407167,"ECCENTRICITY":0.00403625,"INCLINATION":97.4027,"RA_OF_ASC_NODE":122.6817,"ARG_OF_PERICENTER":277.4052,"MEAN_ANOMALY":82.2601,"EPHEMERIS_TYPE":0,"CLASSIFICATION_TYPE":"U","NORAD_CAT_ID":43799,"ELEMENT_SET_NO":999,"REV_AT_EPOCH":39872,"BSTAR":0.00035662773,"MEAN_MOTION_DOT":9.431e-5,"MEAN_MOTION_DDOT":0},{"OBJECT_NAME":"STARLINK-31188","OBJECT_ID":"2024-012T","EPOCH":"2026-03-09T06:58:00.265440","MEAN_MOTION":15.27570984,"ECCENTRICITY":0.00010017,"INCLINATION":43.0029,"RA_OF_ASC_NODE":167.6084,"ARG_OF_PERICENTER":257.2675,"MEAN_ANOMALY":102.8065,"EPHEMERIS_TYPE":0,"CLASSIFICATION_TYPE":"U","NORAD_CAT_ID":58804,"ELEMENT_SET_NO":999,"REV_AT_EPOCH":12117,"BSTAR":2.231982e-5,"MEAN_MOTION_DOT":3.52e-6,"MEAN_MOTION_DDOT":0}]
